STARLINK-37636          
1 69143U 26110V   26155.65680027  .00206811  00000+0  10507-2 0  9998
2 69143  97.2841 351.8677 0001447  97.7548 262.3885 15.80905716  3660
STARLINK-37638          
1 69144U 26110W   26155.71935028  .00193033  00000+0  98271-3 0  9996
2 69144  97.2841 351.9353 0001369  73.8518 286.2901 15.80897394  3675
STARLINK-37657          
1 69145U 26110X   26155.75003471 -.02494684  00000+0 -17674-1 0  9995
2 69145  97.2851 351.9649 0001801  85.4012  84.0819 15.77457571  3716
STARLINK-37639          
1 69146U 26110Y   26155.71784578  .00195958  00000+0  99695-3 0  9999
2 69146  97.2844 351.9380 0001242  67.9455 292.1945 15.80904101  3673
STARLINK-37661          
1 69147U 26110Z   26155.75003471 -.02617186  00000+0 -23781-1 0  9997
2 69147  97.2851 351.9577 0001844  81.5503  72.1835 15.71309659  3710
STARLINK-37395          
1 69148U 26111A   26155.75003471 -.00007299  00000+0 -33468-4 0  9991
2 69148  53.1579 213.9925 0001361  79.9095 263.5135 15.80870786  3548
STARLINK-37346          
1 69149U 26111B   26155.75003471 -.00004002  00000+0 -16756-4 0  9992
2 69149  53.1581 213.9803 0000823  68.2020 281.1812 15.80860169  3540
STARLINK-37332          
1 69150U 26111C   26155.75003471  .00003367  00000+0  20604-4 0  9992
2 69150  53.1581 213.9636 0000922  77.2670 279.8887 15.80856877  3544
STARLINK-37297          
1 69151U 26111D   26155.75003471  .00003819  00000+0  22890-4 0  9994
2 69151  53.1581 213.9773 0001151  59.8140 290.7951 15.80863288  3548
STARLINK-37317          
1 69152U 26111E   26155.75003471 -.00044645  00000+0 -22368-3 0  9998
2 69152  53.1579 213.9544 0001298  92.9379 268.8433 15.80885507  3545
STARLINK-37374          
1 69153U 26111F   26155.75003471 -.00008077  00000+0 -37431-4 0  9996
2 69153  53.1581 213.9365 0000847  82.5390 287.4995 15.80869499  3549
STARLINK-37235          
1 69154U 26111G   26155.75003471 -.00061119  00000+0 -30801-3 0  9996
2 69154  53.1582 213.9443 0001399  51.8628 314.5409 15.80892594  3548
STARLINK-37329          
1 69155U 26111H   26155.75003471 -.00017481  00000+0 -85267-4 0  9997
2 69155  53.1582 213.9593 0000834  67.2429 291.9786 15.80858151  3545
STARLINK-37345          
1 69156U 26111J   26155.75003471 -.00054909  00000+0 -27615-3 0  9996
2 69156  53.1580 213.9427 0001225  43.4681 323.9839 15.80893520  3545
STARLINK-37353          
1 69157U 26111K   26155.75003471 -.00005482  00000+0 -24261-4 0  9994
2 69157  53.1582 213.9397 0000849  70.5457 298.1427 15.80866216  3545
STARLINK-37363          
1 69158U 26111L   26155.75003471  .00057905  00000+0  29620-3 0  9993
2 69158  53.1583 213.9153 0000959  75.2616 305.2057 15.80780623  3544
STARLINK-37343          
1 69159U 26111M   26155.75003471 -.00024941  00000+0 -12311-3 0  9999
2 69159  53.1582 213.9065 0001086  72.5646 312.1911 15.80886432  3542
STARLINK-37328          
1 69160U 26111N   26155.75003471 -.00051711  00000+0 -25983-3 0  9995
2 69160  53.1583 213.9136 0001043  82.1835 299.0409 15.80888840  3544
STARLINK-37311          
1 69161U 26111P   26155.75003471 -.00099711  00000+0 -50669-3 0  9997
2 69161  53.1582 213.9005 0001152  97.2498 290.2159 15.80906382  3549
STARLINK-36286          
1 69162U 26111Q   26155.75003471 -.00031697  00000+0 -15758-3 0  9997
2 69162  53.1583 213.8919 0001082 103.5612 288.1561 15.80881200  3549
STARLINK-37196          
1 69163U 26111R   26155.75003471 -.00032292  00000+0 -18275-3 0  9997
2 69163  53.1584 213.8833 0000665  93.9445 301.7233 15.78066238  3549
STARLINK-36288          
1 69164U 26111S   26155.75003471 -.00923284  00000+0 -57447-2 0  9991
2 69164  53.1585 213.8739 0000737 114.1991 285.7327 15.78709250  3541
STARLINK-37445          
1 69165U 26111T   26155.75003471 -.00056773  00000+0 -28572-3 0  9990
2 69165  53.1583 213.8679 0001069  98.9226 304.2179 15.80892951  3548
STARLINK-37491          
1 69166U 26111U   26155.75003471  .00032977  00000+0  19325-3 0  9995
2 69166  53.1583 213.8642 0001193  71.5628 333.2315 15.78029782  3545
STARLINK-37474          
1 69167U 26111V   26155.75003471 -.01698198  00000+0 -10391-1 0  9994
2 69167  53.1585 213.8359 0000736  99.5830 318.9107 15.79396393  3545
STARLINK-37469          
1 69168U 26111W   26155.75003471 -.00087686  00000+0 -44462-3 0  9996
2 69168  53.1581 213.8264 0001122  69.4658 353.7437 15.80902288  3542
STARLINK-37515          
1 69169U 26111X   26155.75003471 -.02236296  00000+0 -13515-1 0  9995
2 69169  53.1584 213.8178 0000543  67.3689 359.9031 15.80009460  3545
STARLINK-37437          
1 69170U 26111Y   26155.75003471 -.00027108  00000+0 -13421-3 0  9993
2 69170  53.1579 213.8114 0001153  64.5859   5.6313 15.80875609  3541
STARLINK-37392          
1 69171U 26111Z   26155.75003471 -.00133630  00000+0 -68240-3 0  9991
2 69171  53.1583 213.7636 0001323 110.7276 342.3907 15.80922442  3549
STARLINK-37472          
1 69172U 26111AA  26155.75003471 -.00078095  00000+0 -39528-3 0  9992
2 69172  53.1583 213.7547 0000910  98.1403 359.2437 15.80896414  3547
