OBJECT_NAME,OBJECT_ID,EPOCH,MEAN_MOTION,ECCENTRICITY,INCLINATION,RA_OF_ASC_NODE,ARG_OF_PERICENTER,MEAN_ANOMALY,EPHEMERIS_TYPE,CLASSIFICATION_TYPE,NORAD_CAT_ID,ELEMENT_SET_NO,REV_AT_EPOCH,BSTAR,MEAN_MOTION_DOT,MEAN_MOTION_DDOT
STARLINK-37636,2026-110V,2026-06-04T15:45:47.543328,15.80905716,.0001447,97.2841,351.8677,97.7548,262.3885,0,U,69143,999,366,.10507E-2,.206811E-2,0
STARLINK-37638,2026-110W,2026-06-04T17:15:51.864192,15.80897394,.0001369,97.2841,351.9353,73.8518,286.2901,0,U,69144,999,367,.98271E-3,.193033E-2,0
STARLINK-37657,2026-110X,2026-06-04T18:00:02.998944,15.77457571,.0001801,97.2851,351.9649,85.4012,84.0819,0,U,69145,999,371,-.17674E-1,-.2494684E-1,0
STARLINK-37639,2026-110Y,2026-06-04T17:13:41.875392,15.80904101,.0001242,97.2844,351.9380,67.9455,292.1945,0,U,69146,999,367,.99695E-3,.195958E-2,0
STARLINK-37661,2026-110Z,2026-06-04T18:00:02.998944,15.71309659,.0001844,97.2851,351.9577,81.5503,72.1835,0,U,69147,999,371,-.23781E-1,-.2617186E-1,0
STARLINK-37395,2026-111A,2026-06-04T18:00:02.998944,15.80870786,.0001361,53.1579,213.9925,79.9095,263.5135,0,U,69148,999,354,-.33468E-4,-.7299E-4,0
STARLINK-37346,2026-111B,2026-06-04T18:00:02.998944,15.80860169,.0000823,53.1581,213.9803,68.2020,281.1812,0,U,69149,999,354,-.16756E-4,-.4002E-4,0
STARLINK-37332,2026-111C,2026-06-04T18:00:02.998944,15.80856877,.0000922,53.1581,213.9636,77.2670,279.8887,0,U,69150,999,354,.20604E-4,.3367E-4,0
STARLINK-37297,2026-111D,2026-06-04T18:00:02.998944,15.80863288,.0001151,53.1581,213.9773,59.8140,290.7951,0,U,69151,999,354,.2289E-4,.3819E-4,0
STARLINK-37317,2026-111E,2026-06-04T18:00:02.998944,15.80885507,.0001298,53.1579,213.9544,92.9379,268.8433,0,U,69152,999,354,-.22368E-3,-.44645E-3,0
STARLINK-37374,2026-111F,2026-06-04T18:00:02.998944,15.80869499,.0000847,53.1581,213.9365,82.5390,287.4995,0,U,69153,999,354,-.37431E-4,-.8077E-4,0
STARLINK-37235,2026-111G,2026-06-04T18:00:02.998944,15.80892594,.0001399,53.1582,213.9443,51.8628,314.5409,0,U,69154,999,354,-.30801E-3,-.61119E-3,0
STARLINK-37329,2026-111H,2026-06-04T18:00:02.998944,15.80858151,.0000834,53.1582,213.9593,67.2429,291.9786,0,U,69155,999,354,-.85267E-4,-.17481E-3,0
STARLINK-37345,2026-111J,2026-06-04T18:00:02.998944,15.80893520,.0001225,53.1580,213.9427,43.4681,323.9839,0,U,69156,999,354,-.27615E-3,-.54909E-3,0
STARLINK-37353,2026-111K,2026-06-04T18:00:02.998944,15.80866216,.0000849,53.1582,213.9397,70.5457,298.1427,0,U,69157,999,354,-.24261E-4,-.5482E-4,0
STARLINK-37363,2026-111L,2026-06-04T18:00:02.998944,15.80780623,.0000959,53.1583,213.9153,75.2616,305.2057,0,U,69158,999,354,.2962E-3,.57905E-3,0
STARLINK-37343,2026-111M,2026-06-04T18:00:02.998944,15.80886432,.0001086,53.1582,213.9065,72.5646,312.1911,0,U,69159,999,354,-.12311E-3,-.24941E-3,0
STARLINK-37328,2026-111N,2026-06-04T18:00:02.998944,15.80888840,.0001043,53.1583,213.9136,82.1835,299.0409,0,U,69160,999,354,-.25983E-3,-.51711E-3,0
STARLINK-37311,2026-111P,2026-06-04T18:00:02.998944,15.80906382,.0001152,53.1582,213.9005,97.2498,290.2159,0,U,69161,999,354,-.50669E-3,-.99711E-3,0
STARLINK-36286,2026-111Q,2026-06-04T18:00:02.998944,15.80881200,.0001082,53.1583,213.8919,103.5612,288.1561,0,U,69162,999,354,-.15758E-3,-.31697E-3,0
STARLINK-37196,2026-111R,2026-06-04T18:00:02.998944,15.78066238,.0000665,53.1584,213.8833,93.9445,301.7233,0,U,69163,999,354,-.18275E-3,-.32292E-3,0
STARLINK-36288,2026-111S,2026-06-04T18:00:02.998944,15.78709250,.0000737,53.1585,213.8739,114.1991,285.7327,0,U,69164,999,354,-.57447E-2,-.923284E-2,0
STARLINK-37445,2026-111T,2026-06-04T18:00:02.998944,15.80892951,.0001069,53.1583,213.8679,98.9226,304.2179,0,U,69165,999,354,-.28572E-3,-.56773E-3,0
STARLINK-37491,2026-111U,2026-06-04T18:00:02.998944,15.78029782,.0001193,53.1583,213.8642,71.5628,333.2315,0,U,69166,999,354,.19325E-3,.32977E-3,0
STARLINK-37474,2026-111V,2026-06-04T18:00:02.998944,15.79396393,.0000736,53.1585,213.8359,99.5830,318.9107,0,U,69167,999,354,-.10391E-1,-.1698198E-1,0
STARLINK-37469,2026-111W,2026-06-04T18:00:02.998944,15.80902288,.0001122,53.1581,213.8264,69.4658,353.7437,0,U,69168,999,354,-.44462E-3,-.87686E-3,0
STARLINK-37515,2026-111X,2026-06-04T18:00:02.998944,15.80009460,.0000543,53.1584,213.8178,67.3689,359.9031,0,U,69169,999,354,-.13515E-1,-.2236296E-1,0
STARLINK-37437,2026-111Y,2026-06-04T18:00:02.998944,15.80875609,.0001153,53.1579,213.8114,64.5859,5.6313,0,U,69170,999,354,-.13421E-3,-.27108E-3,0
STARLINK-37392,2026-111Z,2026-06-04T18:00:02.998944,15.80922442,.0001323,53.1583,213.7636,110.7276,342.3907,0,U,69171,999,354,-.6824E-3,-.13363E-2,0
STARLINK-37472,2026-111AA,2026-06-04T18:00:02.998944,15.80896414,.000091,53.1583,213.7547,98.1403,359.2437,0,U,69172,999,354,-.39528E-3,-.78095E-3,0
